OBJECT_NAME,OBJECT_ID,EPOCH,MEAN_MOTION,ECCENTRICITY,INCLINATION,RA_OF_ASC_NODE,ARG_OF_PERICENTER,MEAN_ANOMALY,EPHEMERIS_TYPE,CLASSIFICATION_TYPE,NORAD_CAT_ID,ELEMENT_SET_NO,REV_AT_EPOCH,BSTAR,MEAN_MOTION_DOT,MEAN_MOTION_DDOT
OSCAR 7 (AO-7),1974-089B,2026-07-13T11:56:06.120384,12.53698540,.0012659,101.9905,208.0181,81.4998,74.9341,0,U,7530,999,36381,.12344E-3,-.27E-6,0
PHASE 3B (AO-10),1983-058B,2026-07-13T02:29:46.527936,2.05872336,.6002223,25.9345,215.2934,122.7887,309.2966,0,U,14129,999,29602,0,-.187E-5,0
UOSAT 2 (UO-11),1984-021B,2026-07-13T11:09:20.187072,14.90846440,.0009192,97.8075,159.7493,96.2389,263.9877,0,U,14781,999,26104,.77303E-4,.706E-5,0
LUSAT (LO-19),1990-005G,2026-07-13T11:37:58.420416,14.34130446,.0012487,98.8847,217.0141,126.1000,234.1342,0,U,20442,999,90616,.32204E-4,.44E-6,0
EYESAT A (AO-27),1993-061C,2026-07-13T03:37:54.441984,14.30948752,.00088758,98.6869,261.5539,31.5428,328.6285,0,U,22825,999,71071,.32597986E-4,.41E-6,0
ITAMSAT (IO-26),1993-061D,2026-07-13T02:57:06.045696,14.31376322,.00090858,98.6817,261.4457,15.3060,344.8396,0,U,22826,999,71102,.29298912E-4,.33E-6,0
RADIO ROSTO (RS15),1994-085A,2026-07-13T10:57:33.732288,11.27583549,.0156844,64.8158,260.7326,359.0278,1.0321,0,U,23439,999,29886,.71764E-3,-.17E-6,0
JAS-2 (FO-29),1996-046B,2026-07-13T11:36:04.279104,13.53275514,.0350436,98.5220,39.7508,28.3751,333.5992,0,U,24278,999,47672,.55842E-4,.21E-6,0
TECHSAT 1B (GO-32),1998-043D,2026-07-13T11:25:01.509888,14.24433165,.0002145,99.0084,187.8991,117.0535,243.0862,0,U,25397,999,45507,.27612E-4,.17E-6,0
ISS (ZARYA),1998-067A,2026-07-13T07:33:22.422240,15.48997295,.0006687,51.6305,170.7871,290.3592,69.6678,0,U,25544,999,57580,.81266E-4,.4029E-4,0
PCSAT (NO-44),2001-043C,2026-07-13T10:06:23.041728,14.31964599,.0005942,67.0493,176.4180,266.4471,93.5951,0,U,26931,999,29420,.39237E-4,.22E-6,0
SAUDISAT 1C (SO-50),2002-058C,2026-07-12T21:56:09.315744,14.83095930,.00745949,64.5517,49.3840,257.6999,101.5749,0,U,27607,999,26827,.64575255E-4,.395E-5,0
CUTE-1 (CO-55),2003-031E,2026-07-13T10:48:24.575616,14.24350896,.0010803,98.6742,202.6793,107.1223,253.1140,0,U,27844,999,19541,.86848E-4,.157E-5,0
CUBESAT XI-IV (CO-57),2003-031J,2026-07-13T10:50:47.721408,14.23633987,.0010479,98.6773,202.3723,123.9671,236.2505,0,U,27848,999,19511,.76714E-4,.131E-5,0
MOZHAETS 4 (RS22),2003-042A,2026-07-13T13:29:31.252992,14.73512902,.0011116,98.3472,19.6678,178.4117,254.7606,0,U,27939,999,21943,.10404E-3,.623E-5,0
CUBESAT XI-V,2005-043F,2026-07-13T10:12:39.203136,14.72699773,.0015195,98.3010,350.6030,120.4468,239.8242,0,U,28895,999,10561,.12097E-3,.72E-5,0
CUTE-1.7+APD II (CO-65),2008-021C,2026-07-13T11:56:43.230048,15.09690795,.0007182,97.8288,176.4700,306.3996,53.6570,0,U,32785,999,98916,.19913E-3,.3142E-4,0
SEEDS II (CO-66),2008-021J,2026-07-13T12:03:43.890048,15.33629018,.0002886,97.7522,193.6748,159.9785,200.1570,0,U,32791,999,99132,.32808E-3,.10586E-3,0
YUBILEINY (RS30),2008-025A,2026-07-13T11:53:11.349600,12.43180767,.0018582,82.5053,339.0738,252.9517,106.9527,0,U,32953,999,82296,.12591E-3,.27E-6,0
KKS-1 (KISEKI),2009-002H,2026-07-13T12:00:32.984064,14.83186776,.0007285,98.1176,117.3595,194.7767,165.3234,0,U,33499,999,94009,.87832E-4,.661E-5,0
SWISSCUBE,2009-051B,2026-07-13T07:17:18.426336,14.62528711,.0007766,98.4011,102.6448,124.1169,236.0769,0,U,35932,999,89297,.1073E-3,.495E-5,0
BEESAT-1,2009-051C,2026-07-12T17:03:25.723296,14.61759519,.00059845,98.3939,101.6234,136.3628,223.8047,0,U,35933,999,89291,.88659106E-4,.393E-5,0
ITUPSAT1,2009-051E,2026-07-11T23:17:18.975264,14.60475983,.0007861,98.4023,100.0372,152.4089,207.7529,0,U,35935,999,89235,.90105677E-4,.388E-5,0
XIWANG-1 (HOPE-1),2009-072B,2026-07-13T11:07:33.075264,13.16440195,.0007488,100.4028,147.8772,168.5233,191.6052,0,U,36122,999,79646,.51224E-3,.151E-5,0
O/OREOS (USA 219),2010-062C,2026-07-12T23:29:05.665920,14.93846697,.00138578,71.9695,21.9108,9.4460,350.6968,0,U,37224,999,12049,.11532673E-3,.1163E-4,0
JUGNU,2011-058B,2026-07-13T01:27:49.154112,14.13783158,.0018498,19.9592,151.2304,2.9049,74.5783,0,U,37839,999,76269,.42398519E-4,.348E-5,0
SRMSAT,2011-058D,2026-07-13T10:56:57.364800,14.11580880,.0011811,19.9713,260.4725,132.1672,338.6137,0,U,37841,999,76153,.42889E-4,.344E-5,0
STRAND-1,2013-009E,2026-07-13T10:37:14.800224,14.37178253,.000932,98.3932,14.0322,145.9311,214.2476,0,U,39090,999,70083,.62098E-4,.142E-5,0
ZACUBE-1 (TSHEPISOSAT),2013-066B,2026-07-13T11:14:30.040800,15.01324440,.0043932,97.8010,156.9353,160.7484,199.5412,0,U,39417,999,68467,.10703E-3,.1341E-4,0
GOMX-1,2013-066Q,2026-07-13T12:53:24.779904,14.69540744,.0128443,97.6474,33.3373,353.5444,6.4102,0,U,39430,999,67378,.13587E-3,.862E-5,0
